start=new Date('2023-05-25T00:00:00.000Z').valueOf();
sats=[{"REV_AT_EPOCH":"4728","LAUNCH_DATE":"2022-07-17","MEAN_MOTION_DOT":"0.00003320","INCLINATION":"53.2182","PERIOD":"95.438","BSTAR":"0.00022661000000","MEAN_ELEMENT_THEORY":"SGP4","EPOCH":"2023-05-24T02:29:25.134432","TLE_LINE1":"1 53153U 22083X   23144.10376313  .00003320  00000-0  22661-3 0  9998","COUNTRY_CODE":"US","SITE":"AFETR","NORAD_CAT_ID":"53153","ARG_OF_PERICENTER":"91.3911","FILE":"3916549","REF_FRAME":"TEME","OBJECT_NAME":"STARLINK-4098","MEAN_MOTION":"15.08834913","RCS_SIZE":"LARGE","OBJECT_ID":"2022-083X","MEAN_MOTION_DDOT":"0.0000000000000","CENTER_NAME":"EARTH","TIME_SYSTEM":"UTC","DECAY_DATE":null,"MEAN_ANOMALY":"268.7209","OBJECT_TYPE":"PAYLOAD","EPHEMERIS_TYPE":"0","RA_OF_ASC_NODE":"65.7089","TLE_LINE2":"2 53153  53.2182  65.7089 0001119  91.3911 268.7209 15.08834913 47288","GP_ID":"232450227","ECCENTRICITY":"0.00011190","ELEMENT_SET_NO":"999","PERIAPSIS":"538.987","CLASSIFICATION_TYPE":"U","APOAPSIS":"540.535","SEMIMAJOR_AXIS":"6917.896"},{"COUNTRY_CODE":"US","SITE":"AFETR","INCLINATION":"53.2190","LAUNCH_DATE":"2022-07-17","MEAN_MOTION_DOT":"0.00003806","PERIOD":"95.437","REV_AT_EPOCH":"4727","EPOCH":"2023-05-24T01:04:37.676928","TLE_LINE1":"1 53154U 22083Y   23144.04488052  .00003806  00000-0  25706-3 0  9998","BSTAR":"0.00025706000000","MEAN_ELEMENT_THEORY":"SGP4","MEAN_MOTION_DDOT":"0.0000000000000","OBJECT_ID":"2022-083Y","CENTER_NAME":"EARTH","RCS_SIZE":"LARGE","OBJECT_NAME":"STARLINK-4077","REF_FRAME":"TEME","MEAN_MOTION":"15.08843360","ARG_OF_PERICENTER":"85.9227","NORAD_CAT_ID":"53154","FILE":"3916549","RA_OF_ASC_NODE":"65.9711","EPHEMERIS_TYPE":"0","DECAY_DATE":null,"TIME_SYSTEM":"UTC","MEAN_ANOMALY":"274.1916","OBJECT_TYPE":"PAYLOAD","APOAPSIS":"540.647","SEMIMAJOR_AXIS":"6917.870","TLE_LINE2":"2 53154  53.2190  65.9711 0001318  85.9227 274.1916 15.08843360 47273","GP_ID":"232450475","ECCENTRICITY":"0.00013180","PERIAPSIS":"538.823","CLASSIFICATION_TYPE":"U","ELEMENT_SET_NO":"999"},{"OBJECT_ID":"2022-083Z","MEAN_MOTION_DDOT":"0.0000000000000","CENTER_NAME":"EARTH","RCS_SIZE":"LARGE","REF_FRAME":"TEME","OBJECT_NAME":"STARLINK-4088","MEAN_MOTION":"15.08846608","NORAD_CAT_ID":"53155","ARG_OF_PERICENTER":"104.5652","FILE":"3916549","SITE":"AFETR","COUNTRY_CODE":"US","EPOCH":"2023-05-24T03:54:12.456288","TLE_LINE1":"1 53155U 22083Z   23144.16264417  .00005500  00000-0  36333-3 0  9990","MEAN_ELEMENT_THEORY":"SGP4","BSTAR":"0.00036333000000","LAUNCH_DATE":"2022-07-17","MEAN_MOTION_DOT":"0.00005500","INCLINATION":"53.2166","PERIOD":"95.437","REV_AT_EPOCH":"4793","APOAPSIS":"540.493","SEMIMAJOR_AXIS":"6917.860","PERIAPSIS":"538.957","CLASSIFICATION_TYPE":"U","ELEMENT_SET_NO":"999","GP_ID":"232451221","TLE_LINE2":"2 53155  53.2166  65.4422 0001110 104.5652 255.5463 15.08846608 47932","ECCENTRICITY":"0.00011100","RA_OF_ASC_NODE":"65.4422","EPHEMERIS_TYPE":"0","OBJECT_TYPE":"PAYLOAD","MEAN_ANOMALY":"255.5463","TIME_SYSTEM":"UTC","DECAY_DATE":null},{"SEMIMAJOR_AXIS":"6917.850","APOAPSIS":"540.499","ELEMENT_SET_NO":"999","CLASSIFICATION_TYPE":"U","PERIAPSIS":"538.930","ECCENTRICITY":"0.00011340","GP_ID":"232451472","TLE_LINE2":"2 53156  53.2164  65.6623 0001134  88.8306 271.2816 15.08849974 47286","EPHEMERIS_TYPE":"0","RA_OF_ASC_NODE":"65.6623","OBJECT_TYPE":"PAYLOAD","MEAN_ANOMALY":"271.2816","DECAY_DATE":null,"TIME_SYSTEM":"UTC","RCS_SIZE":"LARGE","CENTER_NAME":"EARTH","OBJECT_ID":"2022-083AA","MEAN_MOTION_DDOT":"0.0000000000000","FILE":"3916549","NORAD_CAT_ID":"53156","ARG_OF_PERICENTER":"88.8306","MEAN_MOTION":"15.08849974","OBJECT_NAME":"STARLINK-4087","REF_FRAME":"TEME","SITE":"AFETR","COUNTRY_CODE":"US","BSTAR":"0.00041516000000","MEAN_ELEMENT_THEORY":"SGP4","TLE_LINE1":"1 53156U 22083AA  23144.08535016  .00006327  00000-0  41516-3 0  9995","EPOCH":"2023-05-24T02:02:54.253824","REV_AT_EPOCH":"4728","PERIOD":"95.437","LAUNCH_DATE":"2022-07-17","MEAN_MOTION_DOT":"0.00006327","INCLINATION":"53.2164"},{"EPHEMERIS_TYPE":"0","RA_OF_ASC_NODE":"65.4738","DECAY_DATE":null,"TIME_SYSTEM":"UTC","MEAN_ANOMALY":"256.2716","OBJECT_TYPE":"PAYLOAD","SEMIMAJOR_AXIS":"6917.870","APOAPSIS":"540.595","ECCENTRICITY":"0.00012430","TLE_LINE2":"2 53157  53.2162  65.4738 0001243 103.8414 256.2716 15.08843289 47295","GP_ID":"232449727","ELEMENT_SET_NO":"999","CLASSIFICATION_TYPE":"U","PERIAPSIS":"538.875","COUNTRY_CODE":"US","SITE":"AFETR","REV_AT_EPOCH":"4729","PERIOD":"95.437","INCLINATION":"53.2162","LAUNCH_DATE":"2022-07-17","MEAN_MOTION_DOT":"0.00004705","MEAN_ELEMENT_THEORY":"SGP4","BSTAR":"0.00031347000000","TLE_LINE1":"1 53157U 22083AB  23144.15528622  .00004705  00000-0  31347-3 0  9998","EPOCH":"2023-05-24T03:43:36.729408","RCS_SIZE":"LARGE","CENTER_NAME":"EARTH","MEAN_MOTION_DDOT":"0.0000000000000","OBJECT_ID":"2022-083AB","FILE":"3916549","NORAD_CAT_ID":"53157","ARG_OF_PERICENTER":"103.8414","MEAN_MOTION":"15.08843289","REF_FRAME":"TEME","OBJECT_NAME":"STARLINK-4093"},{"EPHEMERIS_TYPE":"0","RA_OF_ASC_NODE":"65.4285","TIME_SYSTEM":"UTC","DECAY_DATE":null,"MEAN_ANOMALY":"246.1496","OBJECT_TYPE":"PAYLOAD","APOAPSIS":"540.482","SEMIMAJOR_AXIS":"6917.865","GP_ID":"232449975","TLE_LINE2":"2 53158  53.2169  65.4285 0001086 113.9610 246.1496 15.08844881 47297","ECCENTRICITY":"0.00010860","ELEMENT_SET_NO":"999","PERIAPSIS":"538.979","CLASSIFICATION_TYPE":"U","COUNTRY_CODE":"US","SITE":"AFETR","REV_AT_EPOCH":"4729","LAUNCH_DATE":"2022-07-17","MEAN_MOTION_DOT":"0.00005123","INCLINATION":"53.2169","PERIOD":"95.437","BSTAR":"0.00033970000000","MEAN_ELEMENT_THEORY":"SGP4","EPOCH":"2023-05-24T03:59:30.468768","TLE_LINE1":"1 53158U 22083AC  23144.16632487  .00005123  00000-0  33970-3 0  9994","RCS_SIZE":"LARGE","MEAN_MOTION_DDOT":"0.0000000000000","OBJECT_ID":"2022-083AC","CENTER_NAME":"EARTH","NORAD_CAT_ID":"53158","ARG_OF_PERICENTER":"113.9610","FILE":"3916549","OBJECT_NAME":"STARLINK-4054","REF_FRAME":"TEME","MEAN_MOTION":"15.08844881"},{"TIME_SYSTEM":"UTC","DECAY_DATE":null,"MEAN_ANOMALY":"258.5521","OBJECT_TYPE":"PAYLOAD","RA_OF_ASC_NODE":"65.2127","EPHEMERIS_TYPE":"0","GP_ID":"232450721","TLE_LINE2":"2 53159  53.2170  65.2127 0001202 101.5606 258.5521 15.08847094 47308","ECCENTRICITY":"0.00012020","PERIAPSIS":"538.892","CLASSIFICATION_TYPE":"U","ELEMENT_SET_NO":"999","APOAPSIS":"540.555","SEMIMAJOR_AXIS":"6917.859","INCLINATION":"53.2170","LAUNCH_DATE":"2022-07-17","MEAN_MOTION_DOT":"0.00005312","PERIOD":"95.437","REV_AT_EPOCH":"4730","EPOCH":"2023-05-24T05:08:23.748864","TLE_LINE1":"1 53159U 22083AD  23144.21416376  .00005312  00000-0  35149-3 0  9998","BSTAR":"0.00035149000000","MEAN_ELEMENT_THEORY":"SGP4","COUNTRY_CODE":"US","SITE":"AFETR","REF_FRAME":"TEME","OBJECT_NAME":"STARLINK-4111","MEAN_MOTION":"15.08847094","NORAD_CAT_ID":"53159","ARG_OF_PERICENTER":"101.5606","FILE":"3916549","MEAN_MOTION_DDOT":"0.0000000000000","OBJECT_ID":"2022-083AD","CENTER_NAME":"EARTH","RCS_SIZE":"LARGE"},{"SEMIMAJOR_AXIS":"6917.880","APOAPSIS":"540.572","ECCENTRICITY":"0.00011960","GP_ID":"232450972","TLE_LINE2":"2 53160  53.2188  65.1643 0001196 104.8316 255.2809 15.08840148 47303","ELEMENT_SET_NO":"999","CLASSIFICATION_TYPE":"U","PERIAPSIS":"538.918","EPHEMERIS_TYPE":"0","RA_OF_ASC_NODE":"65.1643","TIME_SYSTEM":"UTC","DECAY_DATE":null,"OBJECT_TYPE":"PAYLOAD","MEAN_ANOMALY":"255.2809","RCS_SIZE":"LARGE","CENTER_NAME":"EARTH","MEAN_MOTION_DDOT":"0.0000000000000","OBJECT_ID":"2022-083AE","FILE":"3916549","NORAD_CAT_ID":"53160","ARG_OF_PERICENTER":"104.8316","MEAN_MOTION":"15.08840148","OBJECT_NAME":"STARLINK-4096","REF_FRAME":"TEME","COUNTRY_CODE":"US","SITE":"AFETR","REV_AT_EPOCH":"4730","PERIOD":"95.438","LAUNCH_DATE":"2022-07-17","MEAN_MOTION_DOT":"0.00002933","INCLINATION":"53.2188","BSTAR":"0.00020226000000","MEAN_ELEMENT_THEORY":"SGP4","TLE_LINE1":"1 53160U 22083AE  23144.22520447  .00002933  00000-0  20226-3 0  9992","EPOCH":"2023-05-24T05:24:17.666208"},{"COUNTRY_CODE":"US","SITE":"AFETR","REV_AT_EPOCH":"4733","PERIOD":"95.438","INCLINATION":"53.2179","LAUNCH_DATE":"2022-07-17","MEAN_MOTION_DOT":"0.00000968","BSTAR":"0.00007890800000","MEAN_ELEMENT_THEORY":"SGP4","TLE_LINE1":"1 53161U 22083AF  23144.40184550  .00000968  00000-0  78908-4 0  9991","EPOCH":"2023-05-24T09:38:39.451200","RCS_SIZE":"LARGE","CENTER_NAME":"EARTH","OBJECT_ID":"2022-083AF","MEAN_MOTION_DDOT":"0.0000000000000","FILE":"3916549","ARG_OF_PERICENTER":"96.4872","NORAD_CAT_ID":"53161","MEAN_MOTION":"15.08834121","OBJECT_NAME":"STARLINK-4055","REF_FRAME":"TEME","EPHEMERIS_TYPE":"0","RA_OF_ASC_NODE":"64.3698","DECAY_DATE":null,"TIME_SYSTEM":"UTC","MEAN_ANOMALY":"263.6248","OBJECT_TYPE":"PAYLOAD","SEMIMAJOR_AXIS":"6917.898","APOAPSIS":"540.544","ECCENTRICITY":"0.00011290","TLE_LINE2":"2 53161  53.2179  64.3698 0001129  96.4872 263.6248 15.08834121 47331","GP_ID":"232450228","ELEMENT_SET_NO":"999","CLASSIFICATION_TYPE":"U","PERIAPSIS":"538.982"},{"ECCENTRICITY":"0.00011550","GP_ID":"232450476","TLE_LINE2":"2 53162  53.2172  65.7946 0001155  92.7446 267.3678 15.08833184 47281","ELEMENT_SET_NO":"999","CLASSIFICATION_TYPE":"U","PERIAPSIS":"538.967","SEMIMAJOR_AXIS":"6917.901","APOAPSIS":"540.565","TIME_SYSTEM":"UTC","DECAY_DATE":null,"MEAN_ANOMALY":"267.3678","OBJECT_TYPE":"PAYLOAD","EPHEMERIS_TYPE":"0","RA_OF_ASC_NODE":"65.7946","FILE":"3916549","NORAD_CAT_ID":"53162","ARG_OF_PERICENTER":"92.7446","MEAN_MOTION":"15.08833184","OBJECT_NAME":"STARLINK-4114","REF_FRAME":"TEME","RCS_SIZE":"LARGE","CENTER_NAME":"EARTH","MEAN_MOTION_DDOT":"0.0000000000000","OBJECT_ID":"2022-083AG","REV_AT_EPOCH":"4728","PERIOD":"95.438","MEAN_MOTION_DOT":"0.00002154","LAUNCH_DATE":"2022-07-17","INCLINATION":"53.2172","BSTAR":"0.00015338000000","MEAN_ELEMENT_THEORY":"SGP4","TLE_LINE1":"1 53162U 22083AG  23144.08632468  .00002154  00000-0  15338-3 0  9998","EPOCH":"2023-05-24T02:04:18.452352","COUNTRY_CODE":"US","SITE":"AFETR"}];
